#aV2023  3  8  0  0  0.00000000     288 DD+AD WGS84 FIT  NGA
## 2252 259200.00000000   300.00000000 60011 0.0000000000000
+   32     1  2  3  4  5  6  7  8  9 10 11 12 13 14 15 16 17
+         18 19 20 21 22 23 24 25 26 27 28 29 30 31 32  0  0
+          0  0  0  0  0  0  0  0  0  0  0  0  0  0  0  0  0
+          0  0  0  0  0  0  0  0  0  0  0  0  0  0  0  0  0
+          0  0  0  0  0  0  0  0  0  0  0  0  0  0  0  0  0
++         2  2  2  2  2  2  2  2  2  2  2  2  2  2  2  2  2
++         2  2  2  2  2  2  2  2  2  2  2  2  2  2  2  0  0
++         0  0  0  0  0  0  0  0  0  0  0  0  0  0  0  0  0
++         0  0  0  0  0  0  0  0  0  0  0  0  0  0  0  0  0
++         0  0  0  0  0  0  0  0  0  0  0  0  0  0  0  0  0
%c cc cc ccc ccc cccc cccc cccc cccc ccccc ccccc ccccc ccccc
%c cc cc ccc ccc cccc cccc cccc cccc ccccc ccccc ccccc ccccc
%f  0.0000000  0.000000000  0.00000000000  0.000000000000000
%f  0.0000000  0.000000000  0.00000000000  0.000000000000000
%i    0    0    0    0      0      0      0      0         0
%i    0    0    0    0      0      0      0      0         0
/*      NGA, ST. LOUIS,MO.                                  
/*   EPHEMERIS COMPUTED FROM 2 DAYS OF DATA                 
/*   EPOCHA v8 SMOOTHER                                     
/*   G2139 IERS2010 SATIGS SATAPC                           
*  2023  3  8 12 10  0.00000000
P  1 -22180.453690 -14789.287380  -2577.150605    204.914109                    
V  1   3239.162616     65.133459 -31932.400735     -0.038933                    
P  2  23961.328927  11139.998121    299.639869   -615.853866                    
V  2   -838.399291   2720.717116  32062.490880      0.027575                    
P  3 -12480.983626 -14718.107862  18179.284012   -353.207623                    
V  3    910.540859 -23264.648731 -17974.455736      0.059887                    
P  4 -18305.751609  -4764.528352  18699.973941    -11.787169                    
V  4  20078.026689 -12628.169359  16336.197233      0.085801                    
P  5   5649.363806  25236.899627  -5935.653428   -118.659979                    
V  5  -2230.630132   7490.889847  30711.936259     -0.014611                    
P  6 -10438.845665  10726.361305  22016.902653    579.538826                    
V  6 -23983.049820 -13869.357564  -4534.709317      0.032472                    
P  7 -24130.480508  -5466.864995  -9851.808628    227.276813                    
V  7 -10106.971226  -8562.149207  27767.578830     -0.075857                    
P  8  -7789.344246 -13129.016561 -21790.576824   -111.937365                    
V  8  23385.954610 -14531.927017    783.850289     -0.018064                    
P  9 -23477.088057   5433.701012  11146.705910   -204.691884                    
V  9  10730.388053  -9725.629682  27117.819025      0.073893                    
P 10  11332.139546 -16401.674763 -17215.454537    -27.685971                    
V 10   2042.419985  22255.755618 -19957.483991     -0.015446                    
P 11   3652.101799  17989.608852  19218.904706   -124.232843                    
V 11 -21311.771523 -11859.901789  15126.769811     -0.111109                    
P 12  10708.058532  17305.876884  16837.122641   -348.985548                    
V 12  -2909.533876  21746.191848 -20070.278933     -0.046112                    
P 13   -970.408924  16179.099395 -21178.581909    487.283132                    
V 13 -24689.982833   9657.145818   8771.671907      0.058420                    
P 14 -13434.835114  13549.883213 -18414.976291     -9.419863                    
V 14  -1323.077048 -23507.006632 -16456.358854      0.099185                    
P 15   9920.172836  12616.289021 -21614.416602     19.722932                    
V 15 -20766.936826  16478.070032    361.047930      0.033725                    
P 16   -913.027291 -26020.852481  -4074.050512   -516.558560                    
V 16   3336.782089  -4631.827332  31597.888541      0.020719                    
P 17 -22772.502993  13626.397452   2454.794519    704.301750                    
V 17  -3314.028882   -800.225290 -31812.963994      0.021801                    
P 18  22526.945749   2060.831203 -14033.270355   -170.755316                    
V 18  14451.311309  10440.547660  24586.041558     -0.162369                    
P 19 -17272.926064  16376.767600  11258.933475    287.257167                    
V 19 -14340.326280   4065.265407 -27628.926711      0.051023                    
P 20    749.992930  26090.080944   5516.616584    446.314559                    
V 20  -4177.143507  -6283.831561  30272.502565     -0.023302                    
P 21 -18946.682051 -16085.316326  -9872.278374    154.289615                    
V 21  12775.272292   3563.427738 -27833.259561      0.001088                    
P 22  13714.299696 -17866.972732  14380.430526    441.203118                    
V 22  16695.597890  -5871.841736 -24121.979050      0.074044                    
P 23  14670.584097  -4028.475732 -21753.259520      9.531269                    
V 23   1602.059447  27569.056761  -4164.771561      0.019778                    
P 24  20950.793919  15216.318604  -7180.418922   -103.256158                    
V 24  -9080.907376   -748.335531 -29119.540459     -0.154592                    
P 25  14877.289924   6689.162128  20698.464940    426.007982                    
V 25    -22.739427  26983.510981  -8305.683879      0.030902                    
P 26   5343.626019 -23868.412550   9804.150370    241.915218                    
V 26   4560.094249  12448.343384  27838.623428      0.001334                    
P 27   4101.190786 -17912.065519 -19260.113637     85.767310                    
V 27  21347.742706 -11209.082942  15569.477379     -0.085429                    
P 28  12185.922787 -10350.425917  21176.882120     37.089772                    
V 28  23705.244191  12856.370607  -7351.813019      0.111896                    
P 29  22626.818538   -816.066668  13898.416208   -589.823882                    
V 29 -15039.627821   9436.996898  24871.386140     -0.018385                    
P 30 -17818.646973   5796.980011 -18820.155418   -527.715378                    
V 30 -20150.675776 -13321.809170  14635.268380      0.014966                    
P 31   8420.103115 -12755.273533  21563.730274   -211.092233                    
V 31  24026.801096  13970.144988   -672.480365     -0.009203                    
P 32  20508.428480 -16150.148171   4449.962459   -417.406716                    
V 32   6206.584558   -329.777409 -31186.263469     -0.110447                    
EOF
